[{"OBJECT_NAME":"STARLINK-35049","OBJECT_ID":"2025-194L","EPOCH":"2026-03-09T12:44:06.889056","MEAN_MOTION":15.05663466,"ECCENTRICITY":0.0002185,"INCLINATION":97.6019,"RA_OF_ASC_NODE":284.2328,"ARG_OF_PERICENTER":82.4381,"MEAN_ANOMALY":277.7094,"EPHEMERIS_TYPE":0,"CLASSIFICATION_TYPE":"U","NORAD_CAT_ID":65444,"ELEMENT_SET_NO":999,"REV_AT_EPOCH":2962,"BSTAR":0.00012815303,"MEAN_MOTION_DOT":1.789e-5,"MEAN_MOTION_DDOT":0},{"OBJECT_NAME":"FREGAT DEB","OBJECT_ID":"2011-037LS","EPOCH":"2026-03-09T08:54:22.917312","MEAN_MOTION":11.92158719,"ECCENTRICITY":0.15355515,"INCLINATION":51.4914,"RA_OF_ASC_NODE":189.2565,"ARG_OF_PERICENTER":293.3488,"MEAN_ANOMALY":51.3308,"EPHEMERIS_TYPE":0,"CLASSIFICATION_TYPE":"U","NORAD_CAT_ID":46411,"ELEMENT_SET_NO":999,"REV_AT_EPOCH":23768,"BSTAR":0.0033127922,"MEAN_MOTION_DOT":0.00011599,"MEAN_MOTION_DDOT":0}]
